{"type": "FeatureCollection", "features": [ {"type": "Feature", "properties": {"norad_id": 33939, "name": "COSMOS 2251 DEB", "group": "cosmos-2251-debris", "lat": -38.59187448739364, "lon": -85.62135776612448, "alt_km": 575.499068270351, "timestamp": "2025-12-12T11:38:31.805736+00:00", "meta": {"OBJECT_NAME": "COSMOS 2251 DEB", "OBJECT_ID": "1993-036EU", "EPOCH": "2025-12-11T09:02:57.474240", "MEAN_MOTION": 14.99741717, "ECCENTRICITY": 0.0003448, "INCLINATION": 74.0065, "RA_OF_ASC_NODE": 83.4008, "ARG_OF_PERICENTER": 62.6749, "MEAN_ANOMALY": 297.4788, "EPHEMERIS_TYPE": 0, "CLASSIFICATION_TYPE": "U", "NORAD_CAT_ID": 33939, "ELEMENT_SET_NO": 999, "REV_AT_EPOCH": 88732, "BSTAR": 0.0068543545, "MEAN_MOTION_DOT": 0.00085715, "MEAN_MOTION_DDOT": 0}, "tle": {"line1": "1 33939U 93036EU  25345.37705410  .00085715  00000+0  68544-2 0  9998", "line2": "2 33939  74.0065  83.4008 0003448  62.6749 297.4788 14.99741717887320"}}, "geometry": {"type": "Point", "coordinates": [-85.62135776612448, -38.59187448739364]}}, {"type": "Feature", "properties": {"norad_id": 33940, "name": "COSMOS 2251 DEB", "group": "cosmos-2251-debris", "lat": 27.13627165818713, "lon": 152.4165521352858, "alt_km": 703.4193333398252, "timestamp": "2025-12-12T11:38:31.805747+00:00", "meta": {"OBJECT_NAME": "COSMOS 2251 DEB", "OBJECT_ID": "1993-036EV", "EPOCH": "2025-12-11T21:23:23.090208", "MEAN_MOTION": 14.58781077, "ECCENTRICITY": 0.0011364, "INCLINATION": 74.0397, "RA_OF_ASC_NODE": 145.1124, "ARG_OF_PERICENTER": 224.9079, "MEAN_ANOMALY": 286.0732, "EPHEMERIS_TYPE": 0, "CLASSIFICATION_TYPE": "U", "NORAD_CAT_ID": 33940, "ELEMENT_SET_NO": 999, "REV_AT_EPOCH": 88581, "BSTAR": 0.0018002, "MEAN_MOTION_DOT": 8.401e-05, "MEAN_MOTION_DDOT": 0}, "tle": {"line1": "1 33940U 93036EV  25345.89123947  .00008401  00000+0  18002-2 0  9997", "line2": "2 33940  74.0397 145.1124 0011364 224.9079 286.0732 14.58781077885813"}}, "geometry": {"type": "Point", "coordinates": [152.4165521352858, 27.13627165818713]}}, {"type": "Feature", "properties": {"norad_id": 33942, "name": "COSMOS 2251 DEB", "group": "cosmos-2251-debris", "lat": -60.24905085120444, "lon": 125.35025517373874, "alt_km": 777.836197623893, "timestamp": "2025-12-12T11:38:31.805757+00:00", "meta": {"OBJECT_NAME": "COSMOS 2251 DEB", "OBJECT_ID": "1993-036EX", "EPOCH": "2025-12-12T04:19:46.756128", "MEAN_MOTION": 14.37987576, "ECCENTRICITY": 0.0020289, "INCLINATION": 74.0367, "RA_OF_ASC_NODE": 275.8587, "ARG_OF_PERICENTER": 359.234, "MEAN_ANOMALY": 108.8267, "EPHEMERIS_TYPE": 0, "CLASSIFICATION_TYPE": "U", "NORAD_CAT_ID": 33942, "ELEMENT_SET_NO": 999, "REV_AT_EPOCH": 88126, "BSTAR": 0.00038166, "MEAN_MOTION_DOT": 1.131e-05, "MEAN_MOTION_DDOT": 0}, "tle": {"line1": "1 33942U 93036EX  25346.18040227  .00001131  00000+0  38166-3 0  9998", "line2": "2 33942  74.0367 275.8587 0020289 359.2340 108.8267 14.37987576881263"}}, "geometry": {"type": "Point", "coordinates": [125.35025517373874, -60.24905085120444]}}, {"type": "Feature", "properties": {"norad_id": 33944, "name": "COSMOS 2251 DEB", "group": "cosmos-2251-debris", "lat": 55.44873292832247, "lon": 104.83867178989865, "alt_km": 735.9800052526562, "timestamp": "2025-12-12T11:38:31.805767+00:00", "meta": {"OBJECT_NAME": "COSMOS 2251 DEB", "OBJECT_ID": "1993-036EZ", "EPOCH": "2025-12-11T23:42:42.731712", "MEAN_MOTION": 14.37340754, "ECCENTRICITY": 0.0112171, "INCLINATION": 74.0402, "RA_OF_ASC_NODE": 310.309, "ARG_OF_PERICENTER": 50.1071, "MEAN_ANOMALY": 18.5228, "EPHEMERIS_TYPE": 0, "CLASSIFICATION_TYPE": "U", "NORAD_CAT_ID": 33944, "ELEMENT_SET_NO": 999, "REV_AT_EPOCH": 88017, "BSTAR": 0.0005383, "MEAN_MOTION_DOT": 1.701e-05, "MEAN_MOTION_DDOT": 0}, "tle": {"line1": "1 33944U 93036EZ  25345.98799458  .00001701  00000+0  53830-3 0  9992", "line2": "2 33944  74.0402 310.3090 0112171  50.1071  18.5228 14.37340754880173"}}, "geometry": {"type": "Point", "coordinates": [104.83867178989865, 55.44873292832247]}}, {"type": "Feature", "properties": {"norad_id": 33945, "name": "COSMOS 2251 DEB", "group": "cosmos-2251-debris", "lat": -73.30560613681514, "lon": -125.9848033582887, "alt_km": 790.7371248699501, "timestamp": "2025-12-12T11:38:31.805777+00:00", "meta": {"OBJECT_NAME": "COSMOS 2251 DEB", "OBJECT_ID": "1993-036FA", "EPOCH": "2025-12-12T00:19:21.512352", "MEAN_MOTION": 14.34600059, "ECCENTRICITY": 0.0021863, "INCLINATION": 74.0297, "RA_OF_ASC_NODE": 307.5978, "ARG_OF_PERICENTER": 34.1614, "MEAN_ANOMALY": 326.094, "EPHEMERIS_TYPE": 0, "CLASSIFICATION_TYPE": "U", "NORAD_CAT_ID": 33945, "ELEMENT_SET_NO": 999, "REV_AT_EPOCH": 88005, "BSTAR": 0.00022978, "MEAN_MOTION_DOT": 6.25e-06, "MEAN_MOTION_DDOT": 0}, "tle": {"line1": "1 33945U 93036FA  25346.01344343  .00000625  00000+0  22978-3 0  9990", "line2": "2 33945  74.0297 307.5978 0021863  34.1614 326.0940 14.34600059880050"}}, "geometry": {"type": "Point", "coordinates": [-125.9848033582887, -73.30560613681514]}}, {"type": "Feature", "properties": {"norad_id": 33948, "name": "COSMOS 2251 DEB", "group": "cosmos-2251-debris", "lat": 53.340571577821194, "lon": 102.98187068527685, "alt_km": 770.9040364217917, "timestamp": "2025-12-12T11:38:31.805787+00:00", "meta": {"OBJECT_NAME": "COSMOS 2251 DEB", "OBJECT_ID": "1993-036FD", "EPOCH": "2025-12-11T23:21:51.282144", "MEAN_MOTION": 14.35627857, "ECCENTRICITY": 0.0022683, "INCLINATION": 74.0356, "RA_OF_ASC_NODE": 306.5398, "ARG_OF_PERICENTER": 22.6023, "MEAN_ANOMALY": 337.6123, "EPHEMERIS_TYPE": 0, "CLASSIFICATION_TYPE": "U", "NORAD_CAT_ID": 33948, "ELEMENT_SET_NO": 999, "REV_AT_EPOCH": 88012, "BSTAR": 0.00032149, "MEAN_MOTION_DOT": 9.04e-06, "MEAN_MOTION_DDOT": 0}, "tle": {"line1": "1 33948U 93036FD  25345.97351021  .00000904  00000+0  32149-3 0  9999", "line2": "2 33948  74.0356 306.5398 0022683  22.6023 337.6123 14.35627857880126"}}, "geometry": {"type": "Point", "coordinates": [102.98187068527685, 53.340571577821194]}}, {"type": "Feature", "properties": {"norad_id": 33971, "name": "COSMOS 2251 DEB", "group": "cosmos-2251-debris", "lat": -7.0009688295820425, "lon": 76.21978743012994, "alt_km": 775.8068930771215, "timestamp": "2025-12-12T11:38:31.805797+00:00", "meta": {"OBJECT_NAME": "COSMOS 2251 DEB", "OBJECT_ID": "1993-036FE", "EPOCH": "2025-12-12T01:16:56.841024", "MEAN_MOTION": 14.39723682, "ECCENTRICITY": 0.0018532, "INCLINATION": 74.0252, "RA_OF_ASC_NODE": 255.0013, "ARG_OF_PERICENTER": 355.6377, "MEAN_ANOMALY": 115.2089, "EPHEMERIS_TYPE": 0, "CLASSIFICATION_TYPE": "U", "NORAD_CAT_ID": 33971, "ELEMENT_SET_NO": 999, "REV_AT_EPOCH": 88129, "BSTAR": 0.00044651, "MEAN_MOTION_DOT": 1.375e-05, "MEAN_MOTION_DDOT": 0}, "tle": {"line1": "1 33971U 93036FE  25346.05343566  .00001375  00000+0  44651-3 0  9994", "line2": "2 33971  74.0252 255.0013 0018532 355.6377 115.2089 14.39723682881295"}}, "geometry": {"type": "Point", "coordinates": [76.21978743012994, -7.0009688295820425]}}, {"type": "Feature", "properties": {"norad_id": 33972, "name": "COSMOS 2251 DEB", "group": "cosmos-2251-debris", "lat": 47.86474392882784, "lon": -7.36341640520489, "alt_km": 823.0366499763495, "timestamp": "2025-12-12T11:38:31.805808+00:00", "meta": {"OBJECT_NAME": "COSMOS 2251 DEB", "OBJECT_ID": "1993-036FF", "EPOCH": "2025-12-11T00:38:11.538816", "MEAN_MOTION": 14.36201122, "ECCENTRICITY": 0.01232315, "INCLINATION": 73.9948, "RA_OF_ASC_NODE": 193.8194, "ARG_OF_PERICENTER": 1.925, "MEAN_ANOMALY": 148.1574, "EPHEMERIS_TYPE": 0, "CLASSIFICATION_TYPE": "U", "NORAD_CAT_ID": 33972, "ELEMENT_SET_NO": 999, "REV_AT_EPOCH": 87049, "BSTAR": 0.0015405762, "MEAN_MOTION_DOT": 4.877e-05, "MEAN_MOTION_DDOT": 0}, "tle": {"line1": "1 33972U 93036FF  25345.02652244  .00004877  00000+0  15406-2 0  9992", "line2": "2 33972  73.9948 193.8194 0123231   1.9250 148.1574 14.36201122870490"}}, "geometry": {"type": "Point", "coordinates": [-7.36341640520489, 47.86474392882784]}}, {"type": "Feature", "properties": {"norad_id": 33973, "name": "COSMOS 2251 DEB", "group": "cosmos-2251-debris", "lat": -47.77875097672661, "lon": -58.20783185641406, "alt_km": 726.132685714394, "timestamp": "2025-12-12T11:38:31.805818+00:00", "meta": {"OBJECT_NAME": "COSMOS 2251 DEB", "OBJECT_ID": "1993-036FG", "EPOCH": "2025-12-11T14:44:00.446784", "MEAN_MOTION": 14.45388996, "ECCENTRICITY": 0.004731, "INCLINATION": 74.0082, "RA_OF_ASC_NODE": 104.9948, "ARG_OF_PERICENTER": 283.6155, "MEAN_ANOMALY": 95.7681, "EPHEMERIS_TYPE": 0, "CLASSIFICATION_TYPE": "U", "NORAD_CAT_ID": 33973, "ELEMENT_SET_NO": 999, "REV_AT_EPOCH": 88584, "BSTAR": 0.00025205547, "MEAN_MOTION_DOT": 8.71e-06, "MEAN_MOTION_DDOT": 0}, "tle": {"line1": "1 33973U 93036FG  25345.61389406  .00000871  00000+0  25206-3 0  9995", "line2": "2 33973  74.0082 104.9948 0047310 283.6155  95.7681 14.45388996885844"}}, "geometry": {"type": "Point", "coordinates": [-58.20783185641406, -47.77875097672661]}}, {"type": "Feature", "properties": {"norad_id": 33975, "name": "COSMOS 2251 DEB", "group": "cosmos-2251-debris", "lat": -31.462581072781635, "lon": -84.85376613570783, "alt_km": 759.0021140825074, "timestamp": "2025-12-12T11:38:31.805828+00:00", "meta": {"OBJECT_NAME": "COSMOS 2251 DEB", "OBJECT_ID": "1993-036FJ", "EPOCH": "2025-12-11T08:54:25.516224", "MEAN_MOTION": 14.00521461, "ECCENTRICITY": 0.0191329, "INCLINATION": 73.8024, "RA_OF_ASC_NODE": 86.8585, "ARG_OF_PERICENTER": 219.9477, "MEAN_ANOMALY": 138.7449, "EPHEMERIS_TYPE": 0, "CLASSIFICATION_TYPE": "U", "NORAD_CAT_ID": 33975, "ELEMENT_SET_NO": 999, "REV_AT_EPOCH": 85810, "BSTAR": 0.0011796959, "MEAN_MOTION_DOT": 2.027e-05, "MEAN_MOTION_DDOT": 0}, "tle": {"line1": "1 33975U 93036FJ  25345.37112866  .00002027  00000+0  11797-2 0  9998", "line2": "2 33975  73.8024  86.8585 0191329 219.9477 138.7449 14.00521461858109"}}, "geometry": {"type": "Point", "coordinates": [-84.85376613570783, -31.462581072781635]}}]}